MAYA-1                  
1 43590U 98067PE  19180.54380895  .00008518  00000-0  10161-3 0  9996
2 43590  51.6370 288.0110 0005266 193.7947 166.2903 15.61973542 50379
BHUTAN-1                
1 43591U 98067PF  19180.53408365  .00008324  00000-0  99232-4 0  9991
2 43591  51.6382 287.9664 0005372 195.0803 165.0032 15.62029337 50374
SIRIUSSAT-1             
1 43595U 98067PG  19180.71784521  .00007811  00000-0  96402-4 0  9992
2 43595  51.6370 288.4221 0003320 149.4974 210.6214 15.61221302 49566
SIRIUSSAT-2             
1 43596U 98067PH  19180.74935633  .00007695  00000-0  95626-4 0  9995
2 43596  51.6378 288.6673 0003851 150.5300 209.5911 15.61064812 49565
TANUSHA-3               
1 43597U 98067PJ  19180.86403893  .00009379  00000-0  10854-3 0  9997
2 43597  51.6363 286.3722 0003204 168.3927 191.7142 15.62626895 49603
SURFSAT                 
1 43614U 18070B   19180.79203317  .00001452  00000-0  39570-4 0  9995
2 43614  93.0220   8.2492 0013190 262.2560  97.7196 15.37548500 44115
CP7 (DAVE)              
1 43615U 18070C   19180.73323030  .00001295  00000-0  35386-4 0  9991
2 43615  93.0224   8.2264 0013376 261.5527  98.4210 15.37468371 44109
ELFIN-B                 
1 43616U 18070D   19180.73661727  .00001759  00000-0  47036-4 0  9990
2 43616  93.0190   8.1408 0014204 266.1297  93.8332 15.38090685 44112
ELFIN-A                 
1 43617U 18070E   19180.60007630  .00002040  00000-0  54465-4 0  9992
2 43617  93.0243   8.3081 0013306 262.9904  96.9836 15.38132378 44098
CUBEBEL-1 (BSUSAT-1)    
1 43666U 18083E   19180.83517654  .00000408  00000-0  23662-4 0  9998
2 43666  97.5190 205.2389 0015766 143.9590 336.7468 15.17587843 36974
DEBRISSAT-2             
1 43680U 98067PR  19180.90540502  .00013858  00000-0  15269-3 0  9996
2 43680  51.6386 285.9278 0003143 183.6011 176.4962 15.63425816 58351
CICERO 10               
1 43690U 18088A   19180.88703419  .00000726  00000-0  32091-4 0  9990
2 43690  85.0382 311.1345 0015891 158.8270 201.3632 15.19666770 35051
IRVINE01                
1 43693U 18088D   19180.79659217  .00001548  00000-0  66910-4 0  9999
2 43693  85.0358 310.7803 0019766 146.5986 213.6507 15.21400630 35055
PROXIMA I               
1 43694U 18088E   19180.82055600  .00000665  00000-0  27633-4 0  9998
2 43694  85.0326 310.5942 0021007 138.5915 221.6924 15.21391779 35063
PROXIMA II              
1 43696U 18088G   19180.81966115  .00000662  00000-0  27509-4 0  9990
2 43696  85.0327 310.5958 0021039 138.5516 221.7326 15.21397172 35065
FACSAT-1                
1 43721U 18096C   19180.88058509  .00000878  00000-0  36620-4 0  9997
2 43721  97.4592 250.7278 0016347 292.4934  67.4574 15.26303370 32446
CENTAURI-2              
1 43722U 18096D   19180.79396983  .00000970  00000-0  39899-4 0  9993
2 43722  97.4593 250.6901 0016522 293.6135  66.3368 15.26522761 32425
INNOSAT-2               
1 43738U 18096V   19180.84026130  .00001358  00000-0  51135-4 0  9998
2 43738  97.4597 251.3944 0022975 304.9383  54.9698 15.28675425 32484
SIRION PATHFINDER-2     
1 43759U 18099B   19180.89537982  .00000166  00000-0  20393-4 0  9999
2 43759  97.7447 252.7432 0012755 285.1250  74.8560 14.95133136 31107
CORVUS-BC 4             
1 43767U 18099K   19180.83868013 -.00000173  00000-0 -10701-4 0  9996
2 43767  97.7433 252.4711 0010357 289.3269  70.6831 14.94575850 31084
SHIELDS 1               
1 43850U 18104B   19180.63300352  .00000041  00000-0  00000-0 0  9990
2 43850  85.0310  49.2240 0012700 293.7568  66.2347 15.21084650 29685
STF-1                   
1 43852U 18104D   19180.64178374  .00000040  00000-0  00000+0 0  9998
2 43852  85.0337  49.4519 0013087 310.8578  49.1541 15.20608443 29674
ZACUBE-2                
1 43907U 18111AH  19180.90224084  .00000280  00000-0  14321-4 0  9998
2 43907  97.2898  85.8319 0020507 315.4129  44.5458 15.24193343 28152
LUME 1                  
1 43908U 18111AJ  19180.69718842  .00000569  00000-0  26012-4 0  9995
2 43908  97.2897  85.6496 0020483 316.4088  43.5531 15.24341902 28128
AOBA VELOX-IV           
1 43940U 19003J   19180.91386947  .00001129  00000-0  49382-4 0  9992
2 43940  97.2760 238.4929 0025636  36.0655  69.1185 15.23818613 24797
CATSAT-2                
1 44029U 98067PV  19180.84702244  .00006519  00000-0  96797-4 0  9992
2 44029  51.6396 295.3233 0004965 185.8620 174.2314 15.56556084 23318
DELPHINI                
1 44030U 98067PW  19180.77637625  .00006303  00000-0  93374-4 0  9995
2 44030  51.6389 295.5910 0004572 185.3821 174.7123 15.56688666 23278
UNITE                   
1 44031U 98067PX  19180.75469186  .00004012  00000-0  64023-4 0  9993
2 44031  51.6396 296.1986 0003295 177.9068 182.1937 15.55758133 23269
TECHEDSAT 8             
1 44032U 98067PY  19180.87839678  .00014686  00000-0  18439-3 0  9991
2 44032  51.6387 293.2744 0003262 190.4508 169.6418 15.59956858 23298
CATSAT-1                
1 44033U 98067PZ  19180.78268845  .00006637  00000-0  98408-4 0  9996
2 44033  51.6397 295.6440 0004734 185.2015 174.8929 15.56561583 23210
NEPALISAT-1             
1 44329U 98067QE  19180.78959011  .00004305  00000-0  77605-4 0  9992
2 44329  51.6416 298.6827 0007713 123.8920 236.2805 15.52074884  1980
RAAVANA-1               
1 44330U 98067QF  19180.78987989  .00004264  00000-0  77047-4 0  9993
2 44330  51.6416 298.6847 0007698 122.6329 237.5405 15.52038325  1964
UGUISU                  
1 44331U 98067QG  19180.78930552  .00004261  00000-0  76809-4 0  9990
2 44331  51.6416 298.6811 0007729 124.9686 235.2030 15.52110488  1973
SPOOQY-1                
1 44332U 98067QH  19180.78901044  .00004337  00000-0  77943-4 0  9999
2 44332  51.6414 298.6786 0006505 126.8932 233.2655 15.52147708  1931
